HIMAWARI-8              
1 40267U 14060A   24032.59178593 -.00000258  00000+0  00000+0 0  9992
2 40267   0.0336 207.7340 0000692  94.1049 183.1489  1.00271974 34079
